[{"OBJECT_NAME":"LEMUR-2-ANDIS","OBJECT_ID":"2017-042P","EPOCH":"2026-03-09T13:25:33.116448","MEAN_MOTION":15.30557934,"ECCENTRICITY":0.0009101,"INCLINATION":97.3659,"RA_OF_ASC_NODE":249.795,"ARG_OF_PERICENTER":4.3248,"MEAN_ANOMALY":355.807,"EPHEMERIS_TYPE":0,"CLASSIFICATION_TYPE":"U","NORAD_CAT_ID":42838,"ELEMENT_SET_NO":999,"REV_AT_EPOCH":47319,"BSTAR":0.00079875,"MEAN_MOTION_DOT":0.00023598,"MEAN_MOTION_DDOT":0},{"OBJECT_NAME":"STARLINK-32947","OBJECT_ID":"2025-039T","EPOCH":"2026-03-09T04:09:37.986048","MEAN_MOTION":15.27528698,"ECCENTRICITY":0.00013725,"INCLINATION":43.0049,"RA_OF_ASC_NODE":15.1957,"ARG_OF_PERICENTER":260.7076,"MEAN_ANOMALY":99.362,"EPHEMERIS_TYPE":0,"CLASSIFICATION_TYPE":"U","NORAD_CAT_ID":63121,"ELEMENT_SET_NO":999,"REV_AT_EPOCH":5799,"BSTAR":0.0012927422,"MEAN_MOTION_DOT":0.00035426,"MEAN_MOTION_DDOT":0}]
